HAWK-11A                
1 62382U 24247F   26068.51231358  .00009457  00000+0  34106-3 0  9991
2 62382  44.9941 114.3328 0005466 327.3713  32.6832 15.28849427 67741
STARLINK-33670          
1 63413U 25065Q   26068.44365001  .00023727  00000+0  86897-3 0  9991
2 63413  43.0019 108.3108 0001796 254.9980 105.0673 15.27580361 52802
